CCSDS_OMM_VERS = 2.0
CREATION_DATE  = 
ORIGINATOR     = 

OBJECT_NAME    = STARLINK-36317
OBJECT_ID      = 2026-026R
CENTER_NAME    = EARTH
REF_FRAME      = TEME
TIME_SYSTEM    = UTC
MEAN_ELEMENT_THEORY = SGP/SGP4

EPOCH          = 2026-02-28T19:24:12.968352
MEAN_MOTION    = 15.80826894
ECCENTRICITY   = .0001661
INCLINATION    = 97.2861
RA_OF_ASC_NODE = 114.0537
ARG_OF_PERICENTER = 63.8140
MEAN_ANOMALY   = 296.3298

EPHEMERIS_TYPE = 0
CLASSIFICATION_TYPE = U
NORAD_CAT_ID   = 67736
ELEMENT_SET_NO = 999
REV_AT_EPOCH   = 273
BSTAR          = .41159E-3
MEAN_MOTION_DOT = .7946E-3
MEAN_MOTION_DDOT = 0

CCSDS_OMM_VERS = 2.0
CREATION_DATE  = 
ORIGINATOR     = 

OBJECT_NAME    = STARLINK-36330
OBJECT_ID      = 2026-026S
CENTER_NAME    = EARTH
REF_FRAME      = TEME
TIME_SYSTEM    = UTC
MEAN_ELEMENT_THEORY = SGP/SGP4

EPOCH          = 2026-02-28T19:20:13.999776
MEAN_MOTION    = 15.80908220
ECCENTRICITY   = .000125
INCLINATION    = 97.2862
RA_OF_ASC_NODE = 114.0576
ARG_OF_PERICENTER = 67.1994
MEAN_ANOMALY   = 292.9406

EPHEMERIS_TYPE = 0
CLASSIFICATION_TYPE = U
NORAD_CAT_ID   = 67737
ELEMENT_SET_NO = 999
REV_AT_EPOCH   = 273
BSTAR          = .13884E-2
MEAN_MOTION_DOT = .275533E-2
MEAN_MOTION_DDOT = 0

CCSDS_OMM_VERS = 2.0
CREATION_DATE  = 
ORIGINATOR     = 

OBJECT_NAME    = STARLINK-36327
OBJECT_ID      = 2026-026T
CENTER_NAME    = EARTH
REF_FRAME      = TEME
TIME_SYSTEM    = UTC
MEAN_ELEMENT_THEORY = SGP/SGP4

EPOCH          = 2026-02-28T19:18:12.771072
MEAN_MOTION    = 15.80845447
ECCENTRICITY   = .0001227
INCLINATION    = 97.2863
RA_OF_ASC_NODE = 114.0600
ARG_OF_PERICENTER = 122.2765
MEAN_ANOMALY   = 237.8622

EPHEMERIS_TYPE = 0
CLASSIFICATION_TYPE = U
NORAD_CAT_ID   = 67738
ELEMENT_SET_NO = 999
REV_AT_EPOCH   = 273
BSTAR          = .6281E-3
MEAN_MOTION_DOT = .122029E-2
MEAN_MOTION_DDOT = 0

CCSDS_OMM_VERS = 2.0
CREATION_DATE  = 
ORIGINATOR     = 

OBJECT_NAME    = STARLINK-36329
OBJECT_ID      = 2026-026U
CENTER_NAME    = EARTH
REF_FRAME      = TEME
TIME_SYSTEM    = UTC
MEAN_ELEMENT_THEORY = SGP/SGP4

EPOCH          = 2026-02-28T20:00:01.999008
MEAN_MOTION    = 15.80893243
ECCENTRICITY   = .0001545
INCLINATION    = 97.2869
RA_OF_ASC_NODE = 114.1083
ARG_OF_PERICENTER = 95.4094
MEAN_ANOMALY   = 118.0089

EPHEMERIS_TYPE = 0
CLASSIFICATION_TYPE = U
NORAD_CAT_ID   = 67739
ELEMENT_SET_NO = 999
REV_AT_EPOCH   = 388
BSTAR          = -.52602E-3
MEAN_MOTION_DOT = -.10011E-2
MEAN_MOTION_DDOT = 0

CCSDS_OMM_VERS = 2.0
CREATION_DATE  = 
ORIGINATOR     = 

OBJECT_NAME    = STARLINK-36737
OBJECT_ID      = 2026-026V
CENTER_NAME    = EARTH
REF_FRAME      = TEME
TIME_SYSTEM    = UTC
MEAN_ELEMENT_THEORY = SGP/SGP4

EPOCH          = 2026-02-28T20:00:01.999008
MEAN_MOTION    = 15.80843567
ECCENTRICITY   = .0001548
INCLINATION    = 97.2885
RA_OF_ASC_NODE = 114.0931
ARG_OF_PERICENTER = 95.6252
MEAN_ANOMALY   = 78.4355

EPHEMERIS_TYPE = 0
CLASSIFICATION_TYPE = U
NORAD_CAT_ID   = 67740
ELEMENT_SET_NO = 999
REV_AT_EPOCH   = 388
BSTAR          = -.24671E-3
MEAN_MOTION_DOT = -.47204E-3
MEAN_MOTION_DDOT = 0

CCSDS_OMM_VERS = 2.0
CREATION_DATE  = 
ORIGINATOR     = 

OBJECT_NAME    = STARLINK-36740
OBJECT_ID      = 2026-026W
CENTER_NAME    = EARTH
REF_FRAME      = TEME
TIME_SYSTEM    = UTC
MEAN_ELEMENT_THEORY = SGP/SGP4

EPOCH          = 2026-02-28T20:00:01.999008
MEAN_MOTION    = 15.80869304
ECCENTRICITY   = .0001452
INCLINATION    = 97.2869
RA_OF_ASC_NODE = 114.1038
ARG_OF_PERICENTER = 91.1674
MEAN_ANOMALY   = 111.8556

EPHEMERIS_TYPE = 0
CLASSIFICATION_TYPE = U
NORAD_CAT_ID   = 67741
ELEMENT_SET_NO = 999
REV_AT_EPOCH   = 388
BSTAR          = -.50517E-3
MEAN_MOTION_DOT = -.96085E-3
MEAN_MOTION_DDOT = 0

CCSDS_OMM_VERS = 2.0
CREATION_DATE  = 
ORIGINATOR     = 

OBJECT_NAME    = STARLINK-36693
OBJECT_ID      = 2026-026X
CENTER_NAME    = EARTH
REF_FRAME      = TEME
TIME_SYSTEM    = UTC
MEAN_ELEMENT_THEORY = SGP/SGP4

EPOCH          = 2026-02-28T20:00:01.999008
MEAN_MOTION    = 15.80866928
ECCENTRICITY   = .0001338
INCLINATION    = 97.2868
RA_OF_ASC_NODE = 114.0960
ARG_OF_PERICENTER = 104.9325
MEAN_ANOMALY   = 75.7568

EPHEMERIS_TYPE = 0
CLASSIFICATION_TYPE = U
NORAD_CAT_ID   = 67742
ELEMENT_SET_NO = 999
REV_AT_EPOCH   = 402
BSTAR          = -.38301E-3
MEAN_MOTION_DOT = -.73067E-3
MEAN_MOTION_DDOT = 0

CCSDS_OMM_VERS = 2.0
CREATION_DATE  = 
ORIGINATOR     = 

OBJECT_NAME    = STARLINK-36717
OBJECT_ID      = 2026-026Y
CENTER_NAME    = EARTH
REF_FRAME      = TEME
TIME_SYSTEM    = UTC
MEAN_ELEMENT_THEORY = SGP/SGP4

EPOCH          = 2026-02-28T20:00:01.999008
MEAN_MOTION    = 15.80858527
ECCENTRICITY   = .0001635
INCLINATION    = 97.2870
RA_OF_ASC_NODE = 114.1025
ARG_OF_PERICENTER = 97.0279
MEAN_ANOMALY   = 99.3639

EPHEMERIS_TYPE = 0
CLASSIFICATION_TYPE = U
NORAD_CAT_ID   = 67743
ELEMENT_SET_NO = 999
REV_AT_EPOCH   = 402
BSTAR          = -.19382E-3
MEAN_MOTION_DOT = -.37184E-3
MEAN_MOTION_DDOT = 0

CCSDS_OMM_VERS = 2.0
CREATION_DATE  = 
ORIGINATOR     = 

OBJECT_NAME    = STARLINK-36692
OBJECT_ID      = 2026-026Z
CENTER_NAME    = EARTH
REF_FRAME      = TEME
TIME_SYSTEM    = UTC
MEAN_ELEMENT_THEORY = SGP/SGP4

EPOCH          = 2026-02-28T20:00:01.999008
MEAN_MOTION    = 15.80842261
ECCENTRICITY   = .0001479
INCLINATION    = 97.2871
RA_OF_ASC_NODE = 114.0999
ARG_OF_PERICENTER = 88.2885
MEAN_ANOMALY   = 100.7998

EPHEMERIS_TYPE = 0
CLASSIFICATION_TYPE = U
NORAD_CAT_ID   = 67744
ELEMENT_SET_NO = 999
REV_AT_EPOCH   = 388
BSTAR          = -.2774E-3
MEAN_MOTION_DOT = -.5302E-3
MEAN_MOTION_DDOT = 0

CCSDS_OMM_VERS = 2.0
CREATION_DATE  = 
ORIGINATOR     = 

OBJECT_NAME    = 2026-027A
OBJECT_ID      = 2026-027A
CENTER_NAME    = EARTH
REF_FRAME      = TEME
TIME_SYSTEM    = UTC
MEAN_ELEMENT_THEORY = SGP/SGP4

EPOCH          = 2026-02-28T19:15:09.747360
MEAN_MOTION    = 15.17504262
ECCENTRICITY   = .0009576
INCLINATION    = 97.4887
RA_OF_ASC_NODE = 188.9112
ARG_OF_PERICENTER = 226.1295
MEAN_ANOMALY   = 133.9148

EPHEMERIS_TYPE = 0
CLASSIFICATION_TYPE = U
NORAD_CAT_ID   = 67746
ELEMENT_SET_NO = 999
REV_AT_EPOCH   = 251
BSTAR          = .44906E-3
MEAN_MOTION_DOT = .8948E-4
MEAN_MOTION_DDOT = 0

CCSDS_OMM_VERS = 2.0
CREATION_DATE  = 
ORIGINATOR     = 

OBJECT_NAME    = 2026-027B
OBJECT_ID      = 2026-027B
CENTER_NAME    = EARTH
REF_FRAME      = TEME
TIME_SYSTEM    = UTC
MEAN_ELEMENT_THEORY = SGP/SGP4

EPOCH          = 2026-02-28T19:13:34.544928
MEAN_MOTION    = 15.17604725
ECCENTRICITY   = .000971
INCLINATION    = 97.4882
RA_OF_ASC_NODE = 188.9114
ARG_OF_PERICENTER = 228.7791
MEAN_ANOMALY   = 131.2607

EPHEMERIS_TYPE = 0
CLASSIFICATION_TYPE = U
NORAD_CAT_ID   = 67747
ELEMENT_SET_NO = 999
REV_AT_EPOCH   = 251
BSTAR          = .4443E-3
MEAN_MOTION_DOT = .8879E-4
MEAN_MOTION_DDOT = 0

CCSDS_OMM_VERS = 2.0
CREATION_DATE  = 
ORIGINATOR     = 

OBJECT_NAME    = 2026-027C
OBJECT_ID      = 2026-027C
CENTER_NAME    = EARTH
REF_FRAME      = TEME
TIME_SYSTEM    = UTC
MEAN_ELEMENT_THEORY = SGP/SGP4

EPOCH          = 2026-02-28T19:11:49.853184
MEAN_MOTION    = 15.17671218
ECCENTRICITY   = .001007
INCLINATION    = 97.4894
RA_OF_ASC_NODE = 188.9156
ARG_OF_PERICENTER = 231.7809
MEAN_ANOMALY   = 128.2519

EPHEMERIS_TYPE = 0
CLASSIFICATION_TYPE = U
NORAD_CAT_ID   = 67748
ELEMENT_SET_NO = 999
REV_AT_EPOCH   = 251
BSTAR          = .31673E-3
MEAN_MOTION_DOT = .632E-4
MEAN_MOTION_DDOT = 0

