STARLINK-36317          
1 67736U 26026R   26059.80848343  .00079460  00000+0  41159-3 0  9993
2 67736  97.2861 114.0537 0001661  63.8140 296.3298 15.80826894  2733
STARLINK-36330          
1 67737U 26026S   26059.80571759  .00275533  00000+0  13884-2 0  9990
2 67737  97.2862 114.0576 0001250  67.1994 292.9406 15.80908220  2733
STARLINK-36327          
1 67738U 26026T   26059.80431448  .00122029  00000+0  62810-3 0  9996
2 67738  97.2863 114.0600 0001227 122.2765 237.8622 15.80845447  2735
STARLINK-36329          
1 67739U 26026U   26059.83335647 -.00100110  00000+0 -52602-3 0  9991
2 67739  97.2869 114.1083 0001545  95.4094 118.0089 15.80893243  3888
STARLINK-36737          
1 67740U 26026V   26059.83335647 -.00047204  00000+0 -24671-3 0  9992
2 67740  97.2885 114.0931 0001548  95.6252  78.4355 15.80843567  3889
STARLINK-36740          
1 67741U 26026W   26059.83335647 -.00096085  00000+0 -50517-3 0  9992
2 67741  97.2869 114.1038 0001452  91.1674 111.8556 15.80869304  3886
STARLINK-36693          
1 67742U 26026X   26059.83335647 -.00073067  00000+0 -38301-3 0  9995
2 67742  97.2868 114.0960 0001338 104.9325  75.7568 15.80866928  4025
STARLINK-36717          
1 67743U 26026Y   26059.83335647 -.00037184  00000+0 -19382-3 0  9994
2 67743  97.2870 114.1025 0001635  97.0279  99.3639 15.80858527  4029
STARLINK-36692          
1 67744U 26026Z   26059.83335647 -.00053020  00000+0 -27740-3 0  9999
2 67744  97.2871 114.0999 0001479  88.2885 100.7998 15.80842261  3887
2026-027A               
1 67746U 26027A   26059.80219615  .00008948  00000+0  44906-3 0  9995
2 67746  97.4887 188.9112 0009576 226.1295 133.9148 15.17504262  2519
2026-027B               
1 67747U 26027B   26059.80109427  .00008879  00000+0  44430-3 0  9990
2 67747  97.4882 188.9114 0009710 228.7791 131.2607 15.17604725  2512
2026-027C               
1 67748U 26027C   26059.79988256  .00006320  00000+0  31673-3 0  9998
2 67748  97.4894 188.9156 0010070 231.7809 128.2519 15.17671218  2516
